NORAD_CAT_ID,OBJECT_NAME,OBJECT_TYPE,EPOCH,MEAN_MOTION,ECCENTRICITY,INCLINATION,RA_OF_ASC_NODE,ARG_OF_PERICENTER,MEAN_ANOMALY,BSTAR,MEAN_MOTION_DOT,MEAN_MOTION_DDOT,TLE_LINE0,TLE_LINE1,TLE_LINE2,SEMIMAJOR_AXIS,PERIOD,APOGEE,PERIGEE,DECAYED
52611.0,STARLINK-3980,PAYLOAD,2023-03-15 21:32:33,15.08834979,0.0001207,53.2154,136.3875,93.1959,266.9171,-0.00014413,-2.581e-05,0.0,0 STARLINK-3980,1 52611U 22052P   23074.89760551 -.00002581  00000-0 -14413-3 0  9997,2 52611  53.2154 136.3875 0001207  93.1959 266.9171 15.08834979 46260,6917.896,95.438,540.596,538.926,0.0
52611.0,STARLINK-3980,PAYLOAD,2023-03-16 10:15:39,15.08812572,0.0001487,53.2149,134.0084,100.2564,259.8596,-0.00038521,-6.409e-05,0.0,0 STARLINK-3980,1 52611U 22052P   23075.42754134 -.00006409  00000-0 -38521-3 0  9996,2 52611  53.2149 134.0084 0001487 100.2564 259.8596 15.08812572 46710,6917.964,95.439,540.858,538.801,0.0
52611.0,STARLINK-3980,PAYLOAD,2023-03-16 13:26:25,15.08816911,0.0001469,53.2144,133.412,100.6813,259.4345,-0.00033419,-5.599e-05,0.0,0 STARLINK-3980,1 52611U 22052P   23075.56002114 -.00005599  00000-0 -33419-3 0  9995,2 52611  53.2144 133.4120 0001469 100.6813 259.4345 15.08816911 46360,6917.951,95.439,540.832,538.8,0.0
52611.0,STARLINK-3980,PAYLOAD,2023-03-16 21:23:21,15.08820307,0.0001444,53.2145,131.9255,107.5059,252.6091,-3.0178e-05,-7.68e-06,0.0,0 STARLINK-3980,1 52611U 22052P   23075.89122396 -.00000768  00000-0 -30178-4 0  9999,2 52611  53.2145 131.9255 0001444 107.5059 252.6091 15.08820307 46417,6917.941,95.439,540.805,538.807,0.0
52611.0,STARLINK-3980,PAYLOAD,2023-03-17 10:06:27,15.08845677,0.0001388,53.2148,129.5472,104.9543,255.1603,0.001411,0.00022243,0.0,0 STARLINK-3980,1 52611U 22052P   23076.42114954  .00022243  00000-0  14110-2 0  9996,2 52611  53.2148 129.5472 0001388 104.9543 255.1603 15.08845677 46863,6917.863,95.437,540.688,538.768,0.0
52611.0,STARLINK-3980,PAYLOAD,2023-03-18 09:57:13,15.08877613,0.0001381,53.2148,125.088,94.244,265.871,0.0012524,0.00019721,0.0,0 STARLINK-3980,1 52611U 22052P   23077.41473720  .00019721  00000-0  12524-2 0  9999,2 52611  53.2148 125.0880 0001381  94.2440 265.8710 15.08877613 47017,6917.765,95.435,540.586,538.675,0.0
52611.0,STARLINK-3980,PAYLOAD,2023-03-18 19:29:31,15.08890811,0.0001304,53.2148,123.3034,93.6937,266.4204,0.0010321,0.00016199,0.0,0 STARLINK-3980,1 52611U 22052P   23077.81216492  .00016199  00000-0  10321-2 0  9993,2 52611  53.2148 123.3034 0001304  93.6937 266.4204 15.08890811 46703,6917.725,95.434,540.492,538.688,0.0
52611.0,STARLINK-3980,PAYLOAD,2023-03-19 03:26:27,15.08862987,0.0001993,53.214,121.8153,87.1689,272.9531,0.00041117,6.266e-05,0.0,0 STARLINK-3980,1 52611U 22052P   23078.14337273  .00006266  00000-0  41117-3 0  9993,2 52611  53.2140 121.8153 0001993  87.1689 272.9531 15.08862987 47121,6917.81,95.436,541.054,538.296,0.0
52611.0,STARLINK-3980,PAYLOAD,2023-03-19 09:47:59,15.08858557,0.0001065,53.2146,120.6254,101.2219,258.8893,0.00038533,5.853e-05,0.0,0 STARLINK-3980,1 52611U 22052P   23078.40832949  .00005853  00000-0  38533-3 0  9991,2 52611  53.2146 120.6254 0001065 101.2219 258.8893 15.08858557 46797,6917.824,95.436,540.425,538.952,0.0
52611.0,STARLINK-3980,PAYLOAD,2023-03-19 19:20:18,15.08849861,0.0001055,53.2148,118.8427,103.7378,256.3732,0.00027481,4.09e-05,0.0,0 STARLINK-3980,1 52611U 22052P   23078.80576882  .00004090  00000-0  27481-3 0  9998,2 52611  53.2148 118.8427 0001055 103.7378 256.3732 15.08849861 47224,6917.85,95.437,540.445,538.985,0.0
52611.0,STARLINK-3980,PAYLOAD,2023-03-20 03:17:14,15.08842705,0.0001395,53.2178,117.3578,108.5631,251.5513,-5.2187e-05,-1.118e-05,0.0,0 STARLINK-3980,1 52611U 22052P   23079.13697122 -.00001118  00000-0 -52187-4 0  9998,2 52611  53.2178 117.3578 0001395 108.5631 251.5513 15.08842705 47279,6917.872,95.437,540.702,538.772,0.0
52611.0,STARLINK-3980,PAYLOAD,2023-03-20 09:38:46,15.08843622,0.0001357,53.2167,116.168,105.5264,254.5878,-0.00011086,-2.052e-05,0.0,0 STARLINK-3980,1 52611U 22052P   23079.40193217 -.00002052  00000-0 -11086-3 0  9994,2 52611  53.2167 116.1680 0001357 105.5264 254.5878 15.08843622 46944,6917.869,95.437,540.673,538.796,0.0
52611.0,STARLINK-3980,PAYLOAD,2023-03-20 19:11:05,15.0884342,0.0001153,53.2146,114.3819,100.9827,259.1295,-0.00011217,-2.073e-05,0.0,0 STARLINK-3980,1 52611U 22052P   23079.79937005 -.00002073  00000-0 -11217-3 0  9996,2 52611  53.2146 114.3819 0001153 100.9827 259.1295 15.08843420 47001,6917.87,95.437,540.533,538.937,0.0
52611.0,STARLINK-3980,PAYLOAD,2023-03-21 09:29:33,15.08844768,0.000116,53.2154,111.7061,103.8483,256.2638,0.00015738,2.218e-05,0.0,0 STARLINK-3980,1 52611U 22052P   23080.39553124  .00002218  00000-0  15738-3 0  9991,2 52611  53.2154 111.7061 0001160 103.8483 256.2638 15.08844768 47463,6917.866,95.437,540.533,538.928,0.0
52611.0,STARLINK-3980,PAYLOAD,2023-03-21 19:01:52,15.08841734,0.0001087,53.2143,109.9211,92.8962,267.2155,0.00012538,1.708e-05,0.0,0 STARLINK-3980,1 52611U 22052P   23080.79297307  .00001708  00000-0  12538-3 0  9991,2 52611  53.2143 109.9211 0001087  92.8962 267.2155 15.08841734 47156,6917.875,95.437,540.492,538.988,0.0
52611.0,STARLINK-3980,PAYLOAD,2023-03-22 01:23:25,15.08837722,0.0001244,53.2144,108.7315,90.4961,269.6173,0.00012182,1.651e-05,0.0,0 STARLINK-3980,1 52611U 22052P   23081.05793602  .00001651  00000-0  12182-3 0  9992,2 52611  53.2144 108.7315 0001244  90.4961 269.6173 15.08837722 47560,6917.887,95.438,540.613,538.892,0.0
52611.0,STARLINK-3980,PAYLOAD,2023-03-22 18:52:40,15.08840388,0.0001292,53.215,105.4594,84.1515,275.9624,0.00011102,1.479e-05,0.0,0 STARLINK-3980,1 52611U 22052P   23081.78657682  .00001479  00000-0  11102-3 0  9998,2 52611  53.2150 105.4594 0001292  84.1515 275.9624 15.08840388 47303,6917.879,95.438,540.638,538.85,0.0
52611.0,STARLINK-3980,PAYLOAD,2023-03-23 07:35:45,15.08845461,0.0001272,53.2151,103.0802,84.4445,275.6692,0.00012937,1.772e-05,0.0,0 STARLINK-3980,1 52611U 22052P   23082.31649478  .00001772  00000-0  12937-3 0  9995,2 52611  53.2151 103.0802 0001272  84.4445 275.6692 15.08845461 47751,6917.864,95.437,540.609,538.849,0.0
52611.0,STARLINK-3980,PAYLOAD,2023-03-23 18:43:27,15.08848413,0.0001468,53.216,101.0005,77.0581,283.0575,0.00021241,3.095e-05,0.0,0 STARLINK-3980,1 52611U 22052P   23082.78017438  .00003095  00000-0  21241-3 0  9999,2 52611  53.2160 101.0005 0001468  77.0581 283.0575 15.08848413 47450,6917.855,95.437,540.735,538.704,0.0
52611.0,STARLINK-3980,PAYLOAD,2023-03-24 04:15:44,15.08874734,0.0001708,53.2155,99.2166,74.3229,285.7952,-0.00011428,-2.108e-05,0.0,0 STARLINK-3980,1 52611U 22052P   23083.17759941 -.00002108  00000-0 -11428-3 0  9997,2 52611  53.2155  99.2166 0001708  74.3229 285.7952 15.08874734 47886,6917.774,95.435,540.821,538.458,0.0
52611.0,STARLINK-3980,PAYLOAD,2023-03-24 05:51:08,15.0886146,0.0001535,53.216,98.9201,76.4423,283.674,0.00049143,7.546e-05,0.0,0 STARLINK-3980,1 52611U 22052P   23083.24385029  .00007546  00000-0  49143-3 0  9991,2 52611  53.2160  98.9201 0001535  76.4423 283.6740 15.08861460 47890,6917.815,95.436,540.742,538.618,0.0
52611.0,STARLINK-3980,PAYLOAD,2023-03-24 07:26:31,15.08867366,0.0001484,53.2154,98.6223,77.4436,282.6722,0.00054208,8.356e-05,0.0,0 STARLINK-3980,1 52611U 22052P   23083.31008611  .00008356  00000-0  54208-3 0  9996,2 52611  53.2154  98.6223 0001484  77.4436 282.6722 15.08867366 47533,6917.797,95.436,540.688,538.635,0.0
52611.0,STARLINK-3980,PAYLOAD,2023-03-25 04:06:33,15.08837403,0.000123,53.2161,94.7563,72.0892,288.0234,-6.1413e-06,-3.86e-06,0.0,0 STARLINK-3980,1 52611U 22052P   23084.17121688 -.00000386  00000-0 -61413-5 0  9996,2 52611  53.2161  94.7563 0001230  72.0892 288.0234 15.08837403 48034,6917.888,95.438,540.604,538.902,0.0
52611.0,STARLINK-3980,PAYLOAD,2023-03-25 07:17:19,15.08834278,0.0001206,53.2162,94.158,108.7771,251.3352,-6.6612e-05,-1.348e-05,0.0,0 STARLINK-3980,1 52611U 22052P   23084.30369632 -.00001348  00000-0 -66612-4 0  9998,2 52611  53.2162  94.1580 0001206 108.7771 251.3352 15.08834278 47685,6917.898,95.438,540.597,538.929,0.0
52611.0,STARLINK-3980,PAYLOAD,2023-03-26 07:08:06,15.0884365,0.0001225,53.2164,89.6966,115.5749,244.537,1.0931e-05,-1.14e-06,0.0,0 STARLINK-3980,1 52611U 22052P   23085.29729495 -.00000114  00000-0  10931-4 0  9996,2 52611  53.2164  89.6966 0001225 115.5749 244.5370 15.08843650 48203,6917.869,95.437,540.582,538.887,0.0
52611.0,STARLINK-3980,PAYLOAD,2023-03-26 16:40:25,15.08841212,9.83e-05,53.2164,87.9144,103.8834,256.2268,-1.6441e-05,-5.49e-06,0.0,0 STARLINK-3980,1 52611U 22052P   23085.69473690 -.00000549  00000-0 -16441-4 0  9998,2 52611  53.2164  87.9144 0000983 103.8834 256.2268 15.08841212 47899,6917.877,95.437,540.422,539.062,0.0
52611.0,STARLINK-3980,PAYLOAD,2023-03-27 03:48:07,15.08836645,0.000102,53.2165,85.8329,103.7494,256.3612,0.00018569,2.668e-05,0.0,0 STARLINK-3980,1 52611U 22052P   23086.15842165  .00002668  00000-0  18569-3 0  9991,2 52611  53.2165  85.8329 0001020 103.7494 256.3612 15.08836645 48334,6917.891,95.438,540.461,539.05,0.0
52611.0,STARLINK-3980,PAYLOAD,2023-03-27 06:58:53,15.08841138,0.0001016,53.2168,85.2397,100.8941,259.2165,0.00024646,3.637e-05,0.0,0 STARLINK-3980,1 52611U 22052P   23086.29090020  .00003637  00000-0  24646-3 0  9991,2 52611  53.2168  85.2397 0001016 100.8941 259.2165 15.08841138 47984,6917.877,95.437,540.445,539.039,0.0
52611.0,STARLINK-3980,PAYLOAD,2023-03-27 16:31:12,15.08842104,9.86e-05,53.2162,83.4563,104.7,255.4101,0.00017744,2.537e-05,0.0,0 STARLINK-3980,1 52611U 22052P   23086.68833947  .00002537  00000-0  17744-3 0  9996,2 52611  53.2162  83.4563 0000986 104.7000 255.4101 15.08842104 48047,6917.874,95.437,540.421,539.057,0.0
52611.0,STARLINK-3980,PAYLOAD,2023-03-28 06:49:40,15.08844154,0.0001267,53.2178,80.7819,115.9029,244.2094,-0.00011488,-2.116e-05,0.0,0 STARLINK-3980,1 52611U 22052P   23087.28449809 -.00002116  00000-0 -11488-3 0  9997,2 52611  53.2178  80.7819 0001267 115.9029 244.2094 15.08844154 48501,6917.868,95.437,540.609,538.856,0.0
